{"type": "FeatureCollection", "features": [ {"type": "Feature", "properties": {"norad_id": 43622, "name": "BEIDOU-3 M13 (C32)", "group": "beidou", "lat": -49.56909282050868, "lon": 17.518213027662778, "alt_km": 21516.339156841153, "timestamp": "2025-12-22T05:49:03.764832+00:00", "meta": {"OBJECT_NAME": "BEIDOU-3 M13 (C32)", "OBJECT_ID": "2018-072A", "EPOCH": "2025-12-21T06:24:05.172192", "MEAN_MOTION": 1.86231118, "ECCENTRICITY": 0.00062116, "INCLINATION": 56.4663, "RA_OF_ASC_NODE": 68.5379, "ARG_OF_PERICENTER": 298.3671, "MEAN_ANOMALY": 61.6165, "EPHEMERIS_TYPE": 0, "CLASSIFICATION_TYPE": "U", "NORAD_CAT_ID": 43622, "ELEMENT_SET_NO": 999, "REV_AT_EPOCH": 4934, "BSTAR": 0, "MEAN_MOTION_DOT": -3.6e-07, "MEAN_MOTION_DDOT": 0}, "tle": {"line1": "1 43622U 18072A   25355.26672653 -.00000036  00000+0  00000+0 0  9990", "line2": "2 43622  56.4663  68.5379 0006211 298.3671  61.6165  1.86231118 49349"}}, "geometry": {"type": "Point", "coordinates": [17.518213027662778, -49.56909282050868]}}, {"type": "Feature", "properties": {"norad_id": 43623, "name": "BEIDOU-3 M14 (C33)", "group": "beidou", "lat": 20.107175946216117, "lon": 82.54740483697165, "alt_km": 21520.287021054868, "timestamp": "2025-12-22T05:49:03.764844+00:00", "meta": {"OBJECT_NAME": "BEIDOU-3 M14 (C33)", "OBJECT_ID": "2018-072B", "EPOCH": "2025-12-21T16:03:34.515072", "MEAN_MOTION": 1.86231161, "ECCENTRICITY": 0.0003574, "INCLINATION": 56.4682, "RA_OF_ASC_NODE": 68.5185, "ARG_OF_PERICENTER": 327.1094, "MEAN_ANOMALY": 32.9165, "EPHEMERIS_TYPE": 0, "CLASSIFICATION_TYPE": "U", "NORAD_CAT_ID": 43623, "ELEMENT_SET_NO": 999, "REV_AT_EPOCH": 4934, "BSTAR": 0, "MEAN_MOTION_DOT": -3.3e-07, "MEAN_MOTION_DDOT": 0}, "tle": {"line1": "1 43623U 18072B   25355.66914948 -.00000033  00000+0  00000+0 0  9998", "line2": "2 43623  56.4682  68.5185 0003574 327.1094  32.9165  1.86231161 49344"}}, "geometry": {"type": "Point", "coordinates": [82.54740483697165, 20.107175946216117]}}, {"type": "Feature", "properties": {"norad_id": 43647, "name": "BEIDOU-3 M16 (C35)", "group": "beidou", "lat": -53.38343448380517, "lon": -129.34480384425572, "alt_km": 21537.758064237572, "timestamp": "2025-12-22T05:49:03.764855+00:00", "meta": {"OBJECT_NAME": "BEIDOU-3 M16 (C35)", "OBJECT_ID": "2018-078A", "EPOCH": "2025-12-21T06:57:26.662752", "MEAN_MOTION": 1.86232383, "ECCENTRICITY": 0.00073912, "INCLINATION": 54.254, "RA_OF_ASC_NODE": 306.2225, "ARG_OF_PERICENTER": 20.1589, "MEAN_ANOMALY": 339.8673, "EPHEMERIS_TYPE": 0, "CLASSIFICATION_TYPE": "U", "NORAD_CAT_ID": 43647, "ELEMENT_SET_NO": 999, "REV_AT_EPOCH": 4884, "BSTAR": 0, "MEAN_MOTION_DOT": -6.2e-07, "MEAN_MOTION_DDOT": 0}, "tle": {"line1": "1 43647U 18078A   25355.28989193 -.00000062  00000+0  00000+0 0  9994", "line2": "2 43647  54.2540 306.2225 0007391  20.1589 339.8673  1.86232383 48840"}}, "geometry": {"type": "Point", "coordinates": [-129.34480384425572, -53.38343448380517]}}, {"type": "Feature", "properties": {"norad_id": 43648, "name": "BEIDOU-3 M15 (C34)", "group": "beidou", "lat": -9.753921444641328, "lon": 133.27365628356068, "alt_km": 21540.542306694817, "timestamp": "2025-12-22T05:49:03.764866+00:00", "meta": {"OBJECT_NAME": "BEIDOU-3 M15 (C34)", "OBJECT_ID": "2018-078B", "EPOCH": "2025-12-21T10:03:31.555008", "MEAN_MOTION": 1.86232355, "ECCENTRICITY": 0.0004029, "INCLINATION": 54.2498, "RA_OF_ASC_NODE": 306.2184, "ARG_OF_PERICENTER": 19.9234, "MEAN_ANOMALY": 340.0899, "EPHEMERIS_TYPE": 0, "CLASSIFICATION_TYPE": "U", "NORAD_CAT_ID": 43648, "ELEMENT_SET_NO": 999, "REV_AT_EPOCH": 4886, "BSTAR": 0, "MEAN_MOTION_DOT": -6.1e-07, "MEAN_MOTION_DDOT": 0}, "tle": {"line1": "1 43648U 18078B   25355.41911522 -.00000061  00000+0  00000+0 0  9990", "line2": "2 43648  54.2498 306.2184 0004029  19.9234 340.0899  1.86232355 48860"}}, "geometry": {"type": "Point", "coordinates": [133.27365628356068, -9.753921444641328]}}, {"type": "Feature", "properties": {"norad_id": 43683, "name": "BEIDOU-3 G1 (C59)", "group": "beidou", "lat": -1.5524941916678983, "lon": -41.71458533722068, "alt_km": 35793.794895523635, "timestamp": "2025-12-22T05:49:03.764878+00:00", "meta": {"OBJECT_NAME": "BEIDOU-3 G1 (C59)", "OBJECT_ID": "2018-085A", "EPOCH": "2025-12-21T20:42:43.005600", "MEAN_MOTION": 1.00267994, "ECCENTRICITY": 0.0001544, "INCLINATION": 2.6295, "RA_OF_ASC_NODE": 102.6989, "ARG_OF_PERICENTER": 45.7084, "MEAN_ANOMALY": 32.9511, "EPHEMERIS_TYPE": 0, "CLASSIFICATION_TYPE": "U", "NORAD_CAT_ID": 43683, "ELEMENT_SET_NO": 999, "REV_AT_EPOCH": 2628, "BSTAR": 0, "MEAN_MOTION_DOT": -2.58e-06, "MEAN_MOTION_DDOT": 0}, "tle": {"line1": "1 43683U 18085A   25355.86299775 -.00000258  00000+0  00000+0 0  9993", "line2": "2 43683   2.6295 102.6989 0001544  45.7084  32.9511  1.00267994 26284"}}, "geometry": {"type": "Point", "coordinates": [-41.71458533722068, -1.5524941916678983]}}, {"type": "Feature", "properties": {"norad_id": 43706, "name": "BEIDOU-3 M17 (C36)", "group": "beidou", "lat": 53.90980787355445, "lon": -89.14083914908514, "alt_km": 21534.562993068816, "timestamp": "2025-12-22T05:49:03.764889+00:00", "meta": {"OBJECT_NAME": "BEIDOU-3 M17 (C36)", "OBJECT_ID": "2018-093A", "EPOCH": "2025-12-20T12:04:20.840736", "MEAN_MOTION": 1.86228485, "ECCENTRICITY": 0.00060883, "INCLINATION": 54.1751, "RA_OF_ASC_NODE": 188.3582, "ARG_OF_PERICENTER": 307.8758, "MEAN_ANOMALY": 51.559, "EPHEMERIS_TYPE": 0, "CLASSIFICATION_TYPE": "U", "NORAD_CAT_ID": 43706, "ELEMENT_SET_NO": 999, "REV_AT_EPOCH": 4820, "BSTAR": 0, "MEAN_MOTION_DOT": 9.7e-07, "MEAN_MOTION_DDOT": 0}, "tle": {"line1": "1 43706U 18093A   25354.50301899  .00000097  00000+0  00000+0 0  9999", "line2": "2 43706  54.1751 188.3582 0006088 307.8758  51.5590  1.86228485 48203"}}, "geometry": {"type": "Point", "coordinates": [-89.14083914908514, 53.90980787355445]}}, {"type": "Feature", "properties": {"norad_id": 43707, "name": "BEIDOU-3 M18 (C37)", "group": "beidou", "lat": 1.2753812698522826, "lon": 7.3734780978148935, "alt_km": 21545.84231463419, "timestamp": "2025-12-22T05:49:03.764900+00:00", "meta": {"OBJECT_NAME": "BEIDOU-3 M18 (C37)", "OBJECT_ID": "2018-093B", "EPOCH": "2025-12-20T21:39:28.587744", "MEAN_MOTION": 1.86226757, "ECCENTRICITY": 0.00062168, "INCLINATION": 54.1741, "RA_OF_ASC_NODE": 188.3365, "ARG_OF_PERICENTER": 353.7926, "MEAN_ANOMALY": 6.2524, "EPHEMERIS_TYPE": 0, "CLASSIFICATION_TYPE": "U", "NORAD_CAT_ID": 43707, "ELEMENT_SET_NO": 999, "REV_AT_EPOCH": 4821, "BSTAR": 0, "MEAN_MOTION_DOT": 9.5e-07, "MEAN_MOTION_DDOT": 0}, "tle": {"line1": "1 43707U 18093B   25354.90241421  .00000095  00000+0  00000+0 0  9996", "line2": "2 43707  54.1741 188.3365 0006216 353.7926   6.2524  1.86226757 48217"}}, "geometry": {"type": "Point", "coordinates": [7.3734780978148935, 1.2753812698522826]}}, {"type": "Feature", "properties": {"norad_id": 44231, "name": "BEIDOU-2 G8 (C01)", "group": "beidou", "lat": -1.581473227206465, "lon": -37.237577409449194, "alt_km": 35751.293517724895, "timestamp": "2025-12-22T05:49:03.764912+00:00", "meta": {"OBJECT_NAME": "BEIDOU-2 G8 (C01)", "OBJECT_ID": "2019-027A", "EPOCH": "2025-12-19T12:14:23.449632", "MEAN_MOTION": 1.00276563, "ECCENTRICITY": 0.0008196, "INCLINATION": 1.6785, "RA_OF_ASC_NODE": 74.7229, "ARG_OF_PERICENTER": 258.5641, "MEAN_ANOMALY": 83.1013, "EPHEMERIS_TYPE": 0, "CLASSIFICATION_TYPE": "U", "NORAD_CAT_ID": 44231, "ELEMENT_SET_NO": 999, "REV_AT_EPOCH": 2427, "BSTAR": 0, "MEAN_MOTION_DOT": -2.24e-06, "MEAN_MOTION_DDOT": 0}, "tle": {"line1": "1 44231U 19027A   25353.50999363 -.00000224  00000+0  00000+0 0  9992", "line2": "2 44231   1.6785  74.7229 0008196 258.5641  83.1013  1.00276563 24270"}}, "geometry": {"type": "Point", "coordinates": [-37.237577409449194, -1.581473227206465]}}, {"type": "Feature", "properties": {"norad_id": 44337, "name": "BEIDOU-3 IGSO-2 (C39)", "group": "beidou", "lat": 34.070433918545106, "lon": -47.660981600598156, "alt_km": 35716.417401086575, "timestamp": "2025-12-22T05:49:03.764924+00:00", "meta": {"OBJECT_NAME": "BEIDOU-3 IGSO-2 (C39)", "OBJECT_ID": "2019-035A", "EPOCH": "2025-12-21T20:36:58.555584", "MEAN_MOTION": 1.00268615, "ECCENTRICITY": 0.003767, "INCLINATION": 55.2286, "RA_OF_ASC_NODE": 160.4212, "ARG_OF_PERICENTER": 202.2751, "MEAN_ANOMALY": 156.6023, "EPHEMERIS_TYPE": 0, "CLASSIFICATION_TYPE": "U", "NORAD_CAT_ID": 44337, "ELEMENT_SET_NO": 999, "REV_AT_EPOCH": 2388, "BSTAR": 0, "MEAN_MOTION_DOT": -7.4e-07, "MEAN_MOTION_DDOT": 0}, "tle": {"line1": "1 44337U 19035A   25355.85901106 -.00000074  00000+0  00000+0 0  9999", "line2": "2 44337  55.2286 160.4212 0037670 202.2751 156.6023  1.00268615 23882"}}, "geometry": {"type": "Point", "coordinates": [-47.660981600598156, 34.070433918545106]}}, {"type": "Feature", "properties": {"norad_id": 44542, "name": "BEIDOU-3 M24 (C46)", "group": "beidou", "lat": 37.811871972667234, "lon": -25.098325681014096, "alt_km": 21530.586967727453, "timestamp": "2025-12-22T05:49:03.764935+00:00", "meta": {"OBJECT_NAME": "BEIDOU-3 M24 (C46)", "OBJECT_ID": "2019-061A", "EPOCH": "2025-12-20T23:21:37.865088", "MEAN_MOTION": 1.86229471, "ECCENTRICITY": 0.0009592, "INCLINATION": 54.4004, "RA_OF_ASC_NODE": 188.7381, "ARG_OF_PERICENTER": 25.7188, "MEAN_ANOMALY": 334.3821, "EPHEMERIS_TYPE": 0, "CLASSIFICATION_TYPE": "U", "NORAD_CAT_ID": 44542, "ELEMENT_SET_NO": 999, "REV_AT_EPOCH": 4247, "BSTAR": 0, "MEAN_MOTION_DOT": 9.6e-07, "MEAN_MOTION_DDOT": 0}, "tle": {"line1": "1 44542U 19061A   25354.97335492  .00000096  00000+0  00000+0 0  9990", "line2": "2 44542  54.4004 188.7381 0009592  25.7188 334.3821  1.86229471 42471"}}, "geometry": {"type": "Point", "coordinates": [-25.098325681014096, 37.811871972667234]}}]}